#dP2023  8  9  0  0  0.00000000      96 __u+U ITR00 FIT  IAC
## 2274 259200.00000000   900.00000000 60165 0.0000000000000
+  118   C06C07C08C09C10C11C12C13C14C16C19C20C21C22C23C24C25
+        C26C27C28C29C30C32C33C34C35C36C37C38C39C40C41C42C43
+        C44C45C46E02E03E04E05E07E08E09E10E11E12E13E14E15E18
+        E19E21E24E25E26E27E30E31E33E34E36G01G02G03G04G05G06
+        G07G08G09G10G11G12G13G14G15G16G17G18G19G20G21G23G24
+        G25G26G27G28G29G30G31G32J02J03J04R01R02R03R04R05R07
+        R08R09R11R12R13R14R15R16R17R18R19R20R21R22R24R25  0
++         9  8  9  9  8  7  6  8  7  9  7  7  7  7  8  6  6
++         6  5  7  7  7  6  6  7  6  5  7  8  9  9  8  6  7
++         6  5  7  6  7  5  6  6  5  5  7  6  6  5  6  5  7
++         5  5  6  0  5  7  6  6  6  6  7  6  6  6  5  6  6
++         6  5  6  6  4  5  7  6  7  6  6  5  6  5  6  6  7
++         4  5  7  5  6  6  5  6  7  9  0  7  7  7  6  6  7
++         5  6  5  8  5  5  5  4  6  7  8  6  6  7  6  5  0
%c M  cc GPS ccc cccc cccc cccc cccc ccccc ccccc ccccc ccccc
%c cc cc ccc ccc cccc cccc cccc cccc ccccc ccccc ccccc ccccc
%f  0.0000000  0.000000000  0.00000000000  0.000000000000000
%f  0.0000000  0.000000000  0.00000000000  0.000000000000000
%i    0    0    0    0      0      0      0      0         0
%i    0    0    0    0      0      0      0      0         0
/* INFORMATION & ANALYSIS CENTER (IAC)      ULTRA-RAPID DATA
/* S/V CLOCKS ARE ALIGNED TO GNSS TIME                      
/* G:C1WC2W R:C1PC2P E:C1XC5X C:C2IC6I J:C1CC2S             
/* PCV:IGS20_2247 OL/AL:FES2004  NONE     YN ORB:CoN CLK:CoN
*  2023 08 09  0 45  0.00000000
PC06  -6734.509923  23852.709665 -34070.635798    827.610962
PC07 -16920.127099  35089.461211  15930.145795     99.193687
PC08  -3176.863574  39080.426094  15748.293896    397.324306
PC09   3074.179871  26853.564968 -31788.118287    315.683328
PC10 -10297.791543  34959.487142  21055.844585   -139.653431
PC11  -5835.146380  14471.531706  23198.493428    769.405909
PC12 -23342.515181   5322.909002  14357.238755    855.089987
PC13   1194.956600  41192.177828   9710.393202    330.868016
PC14 -11303.959701  23764.124392  -9187.875910    195.397721
PC16  -8869.084584  22291.164748 -34408.087934    -27.654665
PC19   3221.371878 -22021.331770  16868.401535   -956.047246
PC20  16712.542293 -22301.354844   1769.924129    375.641753
PC21 -21219.294721   9008.775090  15715.590980   -946.499133
PC22 -12833.034808  -9065.325117  23052.761974   -359.714746
PC23  15793.717119  20494.886997  10467.970063   -912.026253
PC24  -9051.761185  17138.948954 -20088.992599    263.352160
PC25   6055.013494  26575.236975  -6040.718488    185.414982
PC26 -17323.838894   -853.889187 -21866.212299   -160.528159
PC27  27056.827930   -101.038298  -6844.787419    181.669174
PC28  23940.083022  10838.787902   9405.056142    135.780592
PC29  -5826.643372 -16254.465313 -21927.990478    158.357392
PC30  15798.663400 -11799.357735 -19749.702830     -3.234052
PC32  21149.599009  -9114.643400 -15762.597165   -533.349415
PC33  -3146.183609  22070.645765 -16775.760332   -932.543245
PC34 -14480.562364  12434.569612  20349.124521    232.981903
PC35 -24159.066892 -10147.919831  -9655.999256 999999.999999
PC36  -4832.632478 -26633.223550   6802.175104   -286.139326
PC37  17528.932746   2357.407048  21608.585718   -804.383541
PC38  -8358.863911  35021.047920  22092.363910     96.942027
PC39 -14953.384797  19831.371467 -34051.549640     -4.224829
PC40 -24829.461616  30481.444167  14867.508614    -32.246194
PC41  12387.949604   9657.886452 -23018.798599   -890.848754
PC42 -17452.159326  21753.630612   -289.278736   -584.049086
PC43   4781.284540  16383.306865  22064.844883     34.422113
PC44 -27109.159640    994.573651   6586.084106    194.230821
PC45 -15886.204125 -20145.525084 -10946.225462    -11.751664
PC46   8101.395219 -18189.926094  19540.822005    -75.120082
PE02  12819.092613  14263.153667  22553.950838     54.543360
PE03  22076.824131   6421.899905 -18654.103045    -44.103805
PE04 -28478.466602   7689.736592   2435.290708   -185.133289
PE05   2705.523043  16923.765523 -24130.996115      7.256100
PE07  18493.476207 -17405.384110  15220.786710    -65.991662
PE08  28508.795993  -7471.809469  -2840.131771   -127.361190
PE09 -18615.714375  17297.824207 -15164.231798   -113.730156
PE10 -15826.194840   6695.793620  24086.612876   -554.682583
PE11  -6733.540813  15194.196312  24477.316165   2681.951978
PE12 -21757.495549  -2027.728796  19962.233525   -650.606392
PE13   7352.436111 -14643.285856 -24653.893001    -19.409094
PE14     34.545332 -20277.615381 -23457.447525    305.867296
PE15  21895.706842   2381.691082 -19777.563328    -43.610023
PE18  15507.245656  11767.424948  17757.984539    391.609902
PE19 -20031.462313  -8146.920380  20218.039269  -1892.633489
PE21  -1373.356766 -27750.941703 -10205.435472   -545.549053
PE24 -11940.251650  25474.212378  -9236.721842   -255.292536
PE25   1141.409028  27872.050385   9911.375743 999999.999999
PE26 -11821.477231 -23004.295046 -14389.238342    187.231608
PE27  11503.973791 -25854.180568   8684.888799   -119.822015
PE30  17550.655780  -8177.715347  22384.202893   -402.644070
PE31 -17451.847223   8768.391289 -22229.242290     -2.239462
PE33 -23219.261098 -18137.091832   2767.072321     -1.742914
PE34  23469.964211  17725.315468  -3423.608447    -60.521272
PE36  11292.999140  22861.355920  15028.926643    -98.226144
PG01 -21437.916225 -13972.515145   7400.757530    169.336310
PG02 -21461.300054 -15772.527038   1334.277203   -567.513150
PG03 -13558.591875  -6304.799896  21814.995742   -196.016314
PG04 -23910.608605  -1887.540649  11546.950303    119.938639
PG05   6713.898344  20927.566979 -15020.997827   -138.073585
PG06  -2936.738160  16167.719862  20905.158941    568.758243
PG07 -18873.640497    356.643966 -18402.121913    101.231927
PG08 -16271.774932  -8813.971422 -19269.050141   -136.237250
PG09 -25643.774436   6357.005848   2867.203735    -91.489961
PG10  10965.412414 -22404.703020  -8464.093276    -48.504475
PG11   9852.862097  21749.354414  11691.331035   -312.310640
PG12  11733.388523  11058.366386  20844.356127   -410.639748
PG13   7510.742468  13798.700645 -21631.197761    557.730015
PG14 -13466.038387  19911.963272 -11093.024600    148.179412
PG15  17781.888907   7153.133872 -18960.704103     65.834859
PG16  -1240.600349 -23491.109746 -12180.895633   -470.679781
PG17 -18875.112041  13746.466858  13187.587553    722.422122
PG18  16901.777972  -2874.367031 -20332.466981   -375.758695
PG19 -11984.794465  14875.188089  18097.612853    355.092013
PG20   1884.081852  26169.464305  -4699.030388    418.247341
PG21 -20740.023210 -17272.991012  -1222.515311    151.024851
PG23  14994.337509 -12186.191226 -18144.585059     52.786308
PG24  21986.706529  15106.294658   2094.110379   -283.914758
PG25  15850.568318  -4058.633215  20557.966864    461.063252
PG26   3795.302516 -26094.148552   -422.509328    233.658672
PG27  -3810.220171 -14725.118491 -22016.366444    -18.596749
PG28   4570.573430 -15502.931062  21056.692874     77.750596
PG29  26158.333513  -3531.472805   3378.074038   -607.396787
PG30 -12113.083803  10119.055443 -21252.648331   -497.967866
PG31  -5082.187745 -20476.659275  15690.984725   -221.518399
PG32  15020.597134 -15860.711143  15152.149931   -537.080626
PJ02 -24372.987344  30652.162388 -10908.266304     -2.314883
PJ03 -27380.970513  22352.016822  28043.736162     -0.823591
PJ04      0.000000      0.000000      0.000000 999999.999999
PR01   9531.706085   6113.688988 -22859.994814     63.100981
PR02  19834.062419  -8100.173991 -13751.462879    -22.551478
PR03  18310.423217 -17435.194590   3179.651400     82.930428
PR04   7003.495052 -16694.415186  17988.809940    197.939569
PR05  -8232.067830  -7098.519793  23084.914978    117.035949
PR07 -18062.521884  17618.486022  -3882.277325     62.000760
PR08  -6758.474125  16755.767176 -17966.143547    -72.041538
PR09 -11749.637892  -1460.579717 -22578.248040    135.678201
PR11   2351.651530  24856.170477  -5164.839768   -126.934155
PR12  10191.435899  19070.905669  13572.275991     29.977354
PR13  11706.735211   3803.934424  22333.960439    -37.951243
PR14   6044.925328 -16391.797374  18613.871065     25.057941
PR15  -2745.893020 -25068.039841   3895.105770     87.168483
PR16 -10135.737602 -19279.876768 -13290.436317     17.511505
PR17  12746.141576  -5689.248660 -21357.649894      7.168379
PR18  -4343.336434 -12205.691890 -21970.117616     95.809806
PR19 -17746.952521 -13335.229333 -12558.355283   -242.804834
PR20 -23500.123870  -5832.396516   8080.309412    -97.999727
PR21 -11636.244744   6161.280112  21835.555962    -28.946277
PR22   4748.898955  12934.056943  21488.376268    109.842509
PR24  23614.844096   4488.387490  -8558.884060    -19.747027
PR25 -13087.101930   5382.471831  21218.852417     43.551048
EOF
